OBJECT_NAME,OBJECT_ID,EPOCH,MEAN_MOTION,ECCENTRICITY,INCLINATION,RA_OF_ASC_NODE,ARG_OF_PERICENTER,MEAN_ANOMALY,EPHEMERIS_TYPE,CLASSIFICATION_TYPE,NORAD_CAT_ID,ELEMENT_SET_NO,REV_AT_EPOCH,BSTAR,MEAN_MOTION_DOT,MEAN_MOTION_DDOT
STARLINK-35192,2025-225Z,2026-07-08T09:20:12.382080,15.34396367,.00011653,53.1594,323.9157,133.4685,226.6414,0,U,65933,999,4290,.54068774E-3,.17933E-3,0
STARLINK-33921,2025-225AA,2026-07-08T08:20:58.635168,15.30216375,.00017399,53.1583,325.0724,99.0386,261.0812,0,U,65934,999,4199,.67045125E-3,.1956E-3,0
STARLINK-35155,2025-225AB,2026-07-08T14:16:44.445504,15.34410352,.00009582,53.1593,323.0706,104.8672,255.2437,0,U,65935,999,4204,.41816919E-3,.13783E-3,0
STARLINK-35161,2025-225AC,2026-07-07T16:35:43.592064,15.34406378,.00009075,53.1585,327.3841,77.6517,282.4587,0,U,65936,999,4190,.46364493E-3,.15324E-3,0
STARLINK-35473,2025-225AD,2026-07-08T08:40:56.957376,15.34403537,.00022985,53.1598,324.4609,37.9587,322.1578,0,U,65937,999,4200,.38537087E-3,.12668E-3,0
2025-226A,2025-226A,2026-07-08T12:50:02.484672,15.16718993,.00148123,97.6436,270.1592,77.0365,283.2520,0,U,65938,999,4093,.22877113E-3,.4426E-4,0
2025-226B,2025-226B,2026-07-08T10:54:44.261280,15.09022703,.00136204,97.6384,267.9525,77.4892,282.7859,0,U,65939,999,4078,.10546162E-3,.1607E-4,0
2025-226C,2025-226C,2026-07-08T04:33:59.454144,15.16248086,.00143691,97.6341,269.3711,71.4197,288.8595,0,U,65940,999,4086,.21627887E-3,.4124E-4,0
SHIYAN-31,2025-227A,2026-07-07T13:18:54.731232,15.23751422,.0011056,80.0033,107.3585,112.9102,247.3294,0,U,65945,999,4065,.19657E-3,.475E-4,0
KUIPER-00101,2025-228A,2026-07-08T08:54:30.228480,14.79933424,.00004396,51.8975,186.9011,62.7262,297.3745,0,U,65947,999,4110,.30166106E-3,.2079E-4,0
KUIPER-00113,2025-228B,2026-07-08T09:50:52.801440,14.79920194,.00004954,51.8975,181.7487,73.8545,286.2472,0,U,65948,999,4117,.28074413E-3,.1919E-4,0
KUIPER-00117,2025-228C,2026-07-08T08:58:23.116224,14.79926217,.00006735,51.8966,184.4097,58.4466,301.6562,0,U,65949,999,4113,-.84405583E-4,-.864E-5,0
KUIPER-00121,2025-228D,2026-07-08T08:17:32.470080,14.79932328,.00005253,51.8987,179.5478,63.9280,296.1736,0,U,65950,999,4120,.27417475E-3,.187E-4,0
KUIPER-00122,2025-228E,2026-07-08T09:39:14.604768,14.79927851,.00004752,51.8982,189.2702,73.1628,286.9386,0,U,65951,999,4107,.26858204E-3,.1827E-4,0
KUIPER-00123,2025-228F,2026-07-08T07:13:22.401408,14.79935048,.00004673,51.8967,189.7303,52.1130,307.9874,0,U,65952,999,4105,.20580903E-3,.1348E-4,0
KUIPER-00124,2025-228G,2026-07-08T05:47:46.683456,14.79931587,.00005378,51.8962,182.4811,70.5332,289.5689,0,U,65953,999,4115,.21498877E-3,.1418E-4,0
KUIPER-00125,2025-228H,2026-07-06T16:54:29.478240,14.79934870,.00005667,51.8984,174.3216,59.4296,300.6722,0,U,65954,999,4113,.30272361E-3,.2087E-4,0
KUIPER-00126,2025-228J,2026-07-08T09:43:07.632480,14.79934724,.00005777,51.8972,186.7893,74.9005,285.2021,0,U,65955,999,4110,.20145125E-3,.1315E-4,0
KUIPER-00127,2025-228K,2026-07-08T09:30:26.308512,14.79921683,.00006582,51.9003,179.2980,71.7150,288.3884,0,U,65956,999,4121,.46052814E-4,.13E-5,0
KUIPER-00128,2025-228L,2026-07-08T09:06:09.896544,14.79928604,.00005272,51.8996,179.4378,71.7887,288.3132,0,U,65957,999,4120,.29346103E-3,.2016E-4,0
KUIPER-00129,2025-228M,2026-07-08T08:25:18.593760,14.79929419,.00005645,51.8986,174.5444,66.6148,293.4873,0,U,65958,999,4127,.22750102E-3,.1513E-4,0
KUIPER-00130,2025-228N,2026-07-08T09:10:01.166016,14.79954424,.00019949,51.8997,176.9366,79.4854,280.6333,0,U,65959,999,3153,.61176902E-3,.4448E-4,0
KUIPER-00134,2025-228P,2026-07-08T11:05:06.837216,15.41755457,.00059544,51.8715,93.8135,28.6202,331.5112,0,U,65960,999,4240,.58440302E-3,.24796E-3,0
KUIPER-00135,2025-228Q,2026-07-08T08:21:26.143200,14.79923210,.00005218,51.9007,177.1431,69.1891,290.9127,0,U,65961,999,4123,-.91174217E-4,-.916E-5,0
KUIPER-00136,2025-228R,2026-07-08T09:13:55.463808,14.79934624,.00005786,51.8992,174.4374,55.3875,304.7142,0,U,65962,999,4127,.23810482E-3,.1595E-4,0
KUIPER-00137,2025-228S,2026-07-08T06:03:19.755936,14.79934428,.00005665,51.9017,172.5158,63.8525,296.2496,0,U,65963,999,4129,.22194994E-3,.1471E-4,0
KUIPER-00138,2025-228T,2026-07-08T08:33:04.283712,14.79925328,.00005841,51.8975,169.4853,80.6759,279.4269,0,U,65964,999,4134,.27678541E-3,.1889E-4,0
KUIPER-00140,2025-228U,2026-07-08T08:29:11.501376,14.79927949,.00005771,51.8977,172.0875,74.5874,285.5152,0,U,65965,999,4130,.23230852E-3,.155E-4,0
KUIPER-00141,2025-228V,2026-07-08T08:36:58.296384,14.79923131,.00006883,51.9028,167.1167,69.5626,290.5410,0,U,65966,999,4137,.13655127E-3,.82E-5,0
KUIPER-00146,2025-228W,2026-07-08T07:44:28.631904,14.79929103,.00005457,51.9008,169.7873,56.7240,303.3774,0,U,65967,999,4133,.12410037E-3,.725E-5,0
KUIPER-00149,2025-228X,2026-07-08T07:03:31.809888,14.79926553,.00005406,51.9000,164.7983,49.1243,310.9766,0,U,65968,999,4140,-.98533311E-3,-.7723E-4,0
KUIPER-00154,2025-228Y,2026-07-08T07:56:05.936064,14.79930716,.00006307,51.8984,162.1303,69.8939,290.2091,0,U,65969,999,4144,.25447577E-3,.1719E-4,0
KUIPER-00157,2025-228Z,2026-07-08T12:00:02.000160,14.81187453,.00009708,51.9001,163.9912,29.2320,183.2432,0,U,65970,999,506,-.91415286E-3,-.7396E-4,0
STRIX-5,2025-229A,2026-07-08T00:21:01.291392,15.04557833,.00370311,41.9264,171.8928,191.3593,168.6400,0,U,65971,999,4011,.14218743E-3,.186E-4,0
SDA_1664,2025-230A,2026-07-08T11:11:09.993696,13.79690219,.00011168,81.2978,192.7481,109.7148,250.4126,0,U,65974,999,3670,.11863921E-3,.134E-5,0
SDA_1665,2025-230B,2026-07-08T07:02:41.978688,13.82047390,.00013793,81.2992,192.4571,89.7036,270.4277,0,U,65975,999,3671,.12388332E-3,.145E-5,0
SDA_1666,2025-230C,2026-07-08T11:13:39.236736,13.81917158,.0001337,81.2979,192.2972,106.3072,253.8231,0,U,65976,999,3673,.11241999E-3,.132E-5,0
SDA_1667,2025-230D,2026-07-08T11:13:25.805856,13.81442133,.00010891,81.2976,192.4425,92.0827,268.0453,0,U,65977,999,3672,.10150524E-3,.12E-5,0
SDA_1668,2025-230E,2026-07-08T06:47:37.705056,13.84237561,.00033651,81.2976,191.9340,140.0091,220.1314,0,U,65978,999,3674,-.3245215E-5,.8E-7,0
SDA_1669,2025-230F,2026-07-08T09:42:58.030848,13.84047461,.00043884,81.2988,191.9407,133.7245,226.4275,0,U,65979,999,3675,.84506124E-4,.106E-5,0
SDA_1670,2025-230G,2026-07-08T07:24:12.035232,13.78089597,.00016862,81.2975,192.7028,89.0412,271.0935,0,U,65980,999,3669,.22164398E-4,.34E-6,0
SDA_1671,2025-230H,2026-07-08T09:44:24.685728,13.80223792,.0003074,81.2983,192.2518,123.2478,236.8971,0,U,65981,999,3673,.72534117E-4,.87E-6,0
SDA_1672,2025-230J,2026-07-08T09:48:09.438048,13.82257334,.00014697,81.3000,192.4458,85.6837,274.4487,0,U,65982,999,3672,.11005757E-3,.13E-5,0
SDA_1673,2025-230K,2026-07-08T07:27:53.813664,13.82263151,.0001248,81.2995,192.1686,113.3409,246.7878,0,U,65983,999,3673,.12698952E-3,.149E-5,0
SDA_1674,2025-230L,2026-07-08T10:13:23.364768,13.82052857,.00017357,81.2983,192.1202,124.4041,235.7278,0,U,65984,999,3674,.98861098E-4,.118E-5,0
SDA_1675,2025-230M,2026-07-08T09:33:17.900640,13.84763387,.00042149,81.2961,192.0223,98.3581,261.8054,0,U,65985,999,3674,.84339754E-4,.107E-5,0
SDA_1676,2025-230N,2026-07-08T12:00:02.000160,13.78083584,.00017318,81.3004,192.9261,93.8953,115.4389,0,U,65986,999,207,.11811165E-1,.11891E-3,0
SDA_1677,2025-230P,2026-07-08T11:23:26.052576,13.78580622,.00021492,81.2980,192.9210,94.0229,266.1170,0,U,65987,999,3669,.11298885E-3,.126E-5,0
SDA_1678,2025-230Q,2026-07-08T10:19:07.336128,13.84984275,.00024159,81.2992,191.8391,125.0727,235.0657,0,U,65988,999,3676,.13091706E-3,.16E-5,0
SDA_1679,2025-230R,2026-07-08T11:04:25.079232,13.84855698,.00039962,81.3009,191.9014,131.4491,228.7010,0,U,65989,999,3676,.98832121E-4,.123E-5,0
SDA_1680,2025-230S,2026-07-08T12:36:43.480800,13.85233665,.00049508,81.2991,191.7832,128.6312,231.5289,0,U,65990,999,3677,.10810077E-3,.135E-5,0
SDA_1681,2025-230T,2026-07-08T10:31:53.330016,13.85306405,.00050191,81.2990,191.8258,130.7464,229.4130,0,U,65991,999,3676,.13559923E-3,.166E-5,0
SDA_1682,2025-230U,2026-07-08T09:40:49.523808,13.78094934,.00013051,81.3006,193.0999,101.2974,258.8326,0,U,65992,999,3668,.80059267E-4,.92E-6,0
SDA_1683,2025-230V,2026-07-07T23:31:46.582464,13.78978971,.00012243,81.2996,193.3192,93.8983,266.2311,0,U,65993,999,3663,.12200235E-3,.136E-5,0
SDA_1684,2025-230W,2026-07-08T09:40:39.249984,13.79434551,.0001746,81.2992,192.8808,100.6502,259.4849,0,U,65994,999,3669,.79129207E-4,.93E-6,0
HULIANWANG DIGUI-87,2025-231A,2026-07-08T10:34:54.089184,13.29327815,.00005774,50.0000,99.6072,321.3826,38.7004,0,U,65995,999,3571,.39101336E-4,-.106E-5,0
HULIANWANG DIGUI-88,2025-231B,2026-07-08T10:46:55.862688,13.29323414,.00006128,49.9984,99.6245,308.7714,51.3103,0,U,65996,999,3571,.27470918E-4,-.111E-5,0
HULIANWANG DIGUI-89,2025-231C,2026-07-08T10:22:50.770848,13.29327621,.00006486,49.9963,99.4912,316.2507,43.8314,0,U,65997,999,3571,.34480758E-4,-.108E-5,0
HULIANWANG DIGUI-90,2025-231D,2026-07-08T10:10:54.202080,13.29326071,.00006541,49.9992,99.5089,311.8261,48.2555,0,U,65998,999,3571,.50727278E-4,-.1E-5,0
HULIANWANG DIGUI-91,2025-231E,2026-07-08T11:47:07.846656,13.29326794,.0000649,50.0012,99.2371,311.4504,48.6312,0,U,65999,999,3572,.57661451E-4,-.97E-6,0
HULIANWANG DIGUI-92,2025-231F,2026-07-08T11:35:01.702176,13.29328756,.00006417,50.0053,99.2769,315.8012,44.2809,0,U,66000,999,3572,.5998424E-4,-.96E-6,0
HULIANWANG DIGUI-93,2025-231G,2026-07-08T11:10:55.041312,13.29327799,.00006282,50.0020,99.1263,310.9719,49.1099,0,U,66001,999,3572,.39852115E-4,-.106E-5,0
HULIANWANG DIGUI-94,2025-231H,2026-07-08T11:23:09.116448,13.29325790,.00006719,50.0059,99.2512,311.6776,48.4039,0,U,66002,999,3572,.56345455E-4,-.98E-6,0
HULIANWANG DIGUI-95,2025-231J,2026-07-08T10:58:59.248416,13.29332136,.00006213,50.0030,99.1080,313.3606,46.7214,0,U,66003,999,3572,.30788684E-4,-.11E-5,0
STARLINK-34849,2025-232A,2026-07-07T04:50:48.848064,15.34371573,.00019767,53.1596,267.3625,47.7957,312.3213,0,U,66005,999,4174,.4632595E-3,.15294E-3,0
